     2.100          NAVIGATION                              RINEX VERSION / TYPE
fic2rin                                 04/02/2009 01:21:53 PGM / RUN BY / DATE
                                                            END OF HEADER
12 09  4  1 18  0  0.0 -.299427192658D-03  .454747350886D-11  .000000000000D+00
     .540000000000D+02 -.673750000000D+02  .420624663563D-08 -.218451109697D+00
    -.347569584846D-05  .334121123888D-02  .914372503757D-05  .515368964767D+04
     .324000000000D+06 -.372529029846D-08 -.148393076893D+01 -.912696123123D-07
     .966138647758D+00  .207906250000D+03 -.767348507511D+00 -.782246869436D-08
     .333585323739D-09  .100000000000D+01  .152500000000D+04  .000000000000D+00
     .240000000000D+01  .000000000000D+00 -.121071934700D-07  .540000000000D+02
     .316806000000D+06  .400000000000D+01
13 09  4  1 18  0  0.0  .293284654617D-03  .113686837722D-11  .000000000000D+00
     .111000000000D+03  .137500000000D+02  .379765818771D-08  .209617173545D+01
     .543892383575D-06  .396876875311D-02  .303424894810D-05  .515373347282D+04
     .324000000000D+06  .596046447754D-07  .275649314312D+01 -.931322574615D-07
     .995213034229D+00  .333843750000D+03  .152386354342D+01 -.790140055362D-08
    -.147148986489D-09  .100000000000D+01  .152500000000D+04  .000000000000D+00
     .240000000000D+01  .000000000000D+00 -.111758708954D-07  .111000000000D+03
     .316806000000D+06  .400000000000D+01
14 09  4  1 18  0  0.0 -.132276210934D-03  .568434188608D-11  .000000000000D+00
     .180000000000D+02  .321875000000D+02  .397266547746D-08  .180228901762D+01
     .153295695782D-05  .437042012345D-02  .366196036339D-05  .515358918381D+04
     .324000000000D+06 -.102445483208D-06  .273734151932D+01 -.372529029846D-07
     .988744107035D+00  .324531250000D+03 -.212062425754D+01 -.798997567170D-08
    -.992898501065D-10  .100000000000D+01  .152500000000D+04  .000000000000D+00
     .240000000000D+01  .000000000000D+00 -.931322574615D-08  .180000000000D+02
     .316806000000D+06  .400000000000D+01
15 09  4  1 18  0  0.0 -.276109203696D-03 -.454747350886D-11  .000000000000D+00
     .790000000000D+02  .429375000000D+02  .478091342995D-08  .210365529142D+01
     .247173011303D-05  .143673748244D-02  .263005495071D-05  .515360241699D+04
     .324000000000D+06  .353902578354D-07  .268664531921D+01 -.931322574615D-08
     .956787197021D+00  .324843750000D+03 -.559213310942D+00 -.845249493748D-08
    -.846463830045D-10  .100000000000D+01  .152500000000D+04  .000000000000D+00
     .240000000000D+01  .000000000000D+00 -.977888703346D-08  .790000000000D+02
     .316806000000D+06  .400000000000D+01
16 09  4  1 18  0  0.0  .629276037216D-04 -.306954461848D-11  .000000000000D+00
     .780000000000D+02 -.487187500000D+02  .418338854064D-08 -.273312132397D+01
    -.238046050072D-05  .526573858224D-02  .873021781445D-05  .515379424858D+04
     .324000000000D+06 -.130385160446D-07 -.146705998363D+01  .149011611938D-07
     .967626836285D+00  .216718750000D+03 -.373042168921D+00 -.779996775711D-08
     .390730561211D-09  .100000000000D+01  .152500000000D+04  .000000000000D+00
     .240000000000D+01  .000000000000D+00 -.977888703346D-08  .780000000000D+02
     .316806000000D+06  .400000000000D+01
17 09  4  1 18  0  0.0  .524725764990D-04  .159161572810D-11  .000000000000D+00
     .610000000000D+02 -.109687500000D+02  .471841082646D-08  .246162266885D+01
    -.374391674995D-06  .438121368643D-02  .748783349991D-05  .515365341568D+04
     .324000000000D+06 -.100582838058D-06 -.424718424667D+00 -.391155481339D-07
     .959904947551D+00  .231718750000D+03 -.268494262593D+01 -.794818821680D-08
     .235366946835D-09  .100000000000D+01  .152500000000D+04  .000000000000D+00
     .240000000000D+01  .000000000000D+00 -.102445483208D-07  .610000000000D+02
     .316806000000D+06  .400000000000D+01
18 09  4  1 18  0  0.0 -.694529153407D-04  .341060513165D-11  .000000000000D+00
     .320000000000D+02  .967500000000D+02  .486270255108D-08 -.258594978733D+01
     .499002635479D-05  .100624733604D-01  .790506601334D-05  .515376867485D+04
     .324000000000D+06  .894069671631D-07  .168376854578D+01 -.163912773132D-06
     .942883350030D+00  .215656250000D+03 -.243609219558D+01 -.810569477758D-08
    -.814319633967D-10  .100000000000D+01  .152500000000D+04  .000000000000D+00
     .240000000000D+01  .000000000000D+00 -.107102096081D-07  .320000000000D+02
     .316806000000D+06  .400000000000D+01
19 09  4  1 18  0  0.0  .293375924230D-04 -.909494701773D-12  .000000000000D+00
     .109000000000D+03 -.684375000000D+01  .485377360772D-08  .179448641238D+01
    -.406056642532D-06  .540632929187D-02  .724755227566D-05  .515357897949D+04
     .324000000000D+06  .987201929092D-07 -.368510818206D+00  .316649675369D-07
     .957662730085D+00  .237000000000D+03 -.379788130374D+00 -.808783689087D-08
     .832177520677D-10  .100000000000D+01  .152500000000D+04  .000000000000D+00
     .240000000000D+01  .000000000000D+00 -.149011611938D-07  .109000000000D+03
     .316806000000D+06  .400000000000D+01
21 09  4  1 18  0  0.0  .214795581996D-04 -.193267624127D-11  .000000000000D+00
     .700000000000D+02  .234062500000D+02  .527736268048D-08 -.127689500650D+01
     .113993883133D-05  .149364025565D-01  .794790685177D-05  .515362312698D+04
     .324000000000D+06  .253319740295D-06  .625093658597D+00 -.137835741043D-06
     .934613342466D+00  .207062500000D+03 -.262882070697D+01 -.820498462769D-08
    -.156435087578D-09  .100000000000D+01  .152500000000D+04  .000000000000D+00
     .240000000000D+01  .000000000000D+00 -.116415321827D-07  .700000000000D+02
     .316806000000D+06  .400000000000D+01
22 09  4  1 18  0  0.0  .202413182706D-03 -.682121026330D-12  .000000000000D+00
     .610000000000D+02  .866875000000D+02  .498770775805D-08  .264368008231D+01
     .450201332569D-05  .486068567261D-02  .764802098274D-05  .515366311455D+04
     .324000000000D+06  .484287738800D-07  .168957530066D+01 -.447034835815D-07
     .940545201711D+00  .220468750000D+03 -.185358627372D+01 -.815783980677D-08
    -.142863093678D-09  .100000000000D+01  .152500000000D+04  .000000000000D+00
     .340000000000D+01  .000000000000D+00 -.181607902050D-07  .610000000000D+02
     .316806000000D+06  .400000000000D+01
23 09  4  1 18  0  0.0  .388995744288D-03  .341060513165D-12  .000000000000D+00
     .490000000000D+02  .215625000000D+02  .439161149968D-08  .125376185951D+01
     .122562050819D-05  .589397700969D-02  .263750553131D-05  .515363036346D+04
     .324000000000D+06  .856816768646D-07  .270582128889D+01  .409781932831D-07
     .970737150802D+00  .327937500000D+03  .287667423326D+01 -.823284293095D-08
    -.197865384745D-09  .100000000000D+01  .152500000000D+04  .000000000000D+00
     .240000000000D+01  .000000000000D+00 -.200234353542D-07  .490000000000D+02
     .316806000000D+06  .400000000000D+01
24 09  4  1 18  0  0.0  .177905429155D-03  .306954461848D-11  .000000000000D+00
     .320000000000D+02  .292187500000D+02  .485198781905D-08 -.264805419274D+01
     .157766044140D-05  .680427462794D-02  .906921923161D-05  .515367243195D+04
     .324000000000D+06 -.949949026108D-07  .656278136161D+00  .800937414169D-07
     .951231088284D+00  .199187500000D+03 -.642456312061D+00 -.791140097018D-08
    -.303226916332D-09  .100000000000D+01  .152500000000D+04  .000000000000D+00
     .340000000000D+01  .000000000000D+00 -.139698386192D-08  .320000000000D+02
     .316806000000D+06  .400000000000D+01
26 09  4  1 18  0  0.0  .545033253729D-04  .216004991671D-11  .000000000000D+00
     .210000000000D+02  .331250000000D+02  .400516683127D-08  .479565745530D+00
     .204518437386D-05  .202961571049D-01  .342167913914D-05  .515486717415D+04
     .324000000000D+06 -.266358256340D-06  .275423596585D+01  .163912773132D-06
     .993069430608D+00  .330343750000D+03  .988929793764D+00 -.833999025121D-08
    -.212508851847D-09  .100000000000D+01  .152500000000D+04  .000000000000D+00
     .240000000000D+01  .000000000000D+00 -.651925802231D-08  .210000000000D+02
     .316806000000D+06  .400000000000D+01
27 09  4  1 18  0  0.0  .372068025172D-04  .318323145621D-11  .000000000000D+00
     .131000000000D+03 -.106062500000D+03  .407302680077D-08  .259918222806D+01
    -.539235770702D-05  .209257928655D-01  .432319939137D-05  .515512789917D+04
     .324000000000D+06  .230967998505D-06 -.259419033611D+01 -.819563865662D-07
     .973807113649D+00  .296343750000D+03 -.162522812626D+01 -.769246327912D-08
    -.229652423088D-09  .100000000000D+01  .152500000000D+04  .000000000000D+00
     .340000000000D+01  .000000000000D+00 -.419095158577D-08  .131000000000D+03
     .316806000000D+06  .400000000000D+01
28 09  4  1 18  0  0.0 -.238376669586D-04 -.113686837722D-12  .000000000000D+00
     .320000000000D+02 -.611562500000D+02  .407588406265D-08  .293331490004D+01
    -.319629907608D-05  .148163862759D-01  .958144664764D-05  .515364471436D+04
     .324000000000D+06  .428408384323D-07 -.145879853560D+01 -.931322574615D-07
     .965820745419D+00  .195906250000D+03 -.203512899602D+01 -.749924094492D-08
     .456090426568D-09  .100000000000D+01  .152500000000D+04  .000000000000D+00
     .240000000000D+01  .000000000000D+00 -.107102096081D-07  .320000000000D+02
     .316806000000D+06  .400000000000D+01
32 09  4  1 18  0  0.0  .280082691461D-03 -.466116034659D-11  .000000000000D+00
     .910000000000D+02  .791875000000D+02  .458233372974D-08  .430776928731D+00
     .413507223129D-05  .133843320655D-01  .725314021111D-05  .515360610962D+04
     .324000000000D+06 -.949949026108D-07  .173836473919D+01 -.150874257088D-06
     .964491586329D+00  .249062500000D+03 -.118152797817D+01 -.831034615927D-08
    -.985755346381D-10  .100000000000D+01  .152500000000D+04  .000000000000D+00
     .340000000000D+01  .000000000000D+00 -.325962901115D-08  .910000000000D+02
     .316806000000D+06  .400000000000D+01
